STARLINK-5789           
1 56003C 23042T   23177.43451389 -.00768556  00000-0 -54378-1 0  1777
2 56003  43.0022  20.5010 0001761 272.2832  47.5414 15.04876577    12
STARLINK-5787           
1 56004C 23042U   23177.43173611  .00017759  00000-0  13108-2 0  1774
2 56004  43.0026  20.3011 0001585 284.5444 110.4044 15.02505761    16
STARLINK-5801           
1 56005C 23042V   23177.43034722  .00016008  00000-0  11816-2 0  1774
2 56005  43.0033  20.4120 0001191 282.6085  62.7420 15.02507093    17
STARLINK-5794           
1 56006C 23042W   23177.43312500  .00000042  00000-0  31185-5 0  1773
2 56006  43.0019  20.1895 0001429 256.0605 188.4636 15.02533131    12
STARLINK-5806           
1 56007C 23042X   23177.42965278 -.00001388  00000-0 -10242-3 0  1774
2 56007  43.0026  20.2693 0001169 249.8202 151.8680 15.02529591    10
STARLINK-5803           
1 56008C 23042Y   23177.42965278 -.00004910  00000-0 -36235-3 0  1779
2 56008  43.0017  20.1642 0001472 267.6144 176.1365 15.02534445    18
STARLINK-5964           
1 56009C 23042Z   23177.43034722  .00002543  00000-0  18769-3 0  1772
2 56009  43.0019  20.2330 0001550 268.4004 149.0536 15.02528535    19
STARLINK-5968           
1 56010C 23042AA  23177.43173611 -.00005143  00000-0 -37954-3 0  1773
2 56010  43.0021  20.1236 0001497 259.2413 207.8120 15.02537438    14
STARLINK-5936           
1 56011C 23042AB  23177.43104167  .00004224  00000-0  29586-3 0  1773
2 56011  43.0009   8.0830 0001699 261.1945 156.4162 15.04481303    18
STARLINK-5940           
1 56012C 23042AC  23177.42826389 -.00005734  00000-0 -40159-3 0  1778
2 56012  43.0008   8.1897 0001678 271.3508  93.0406 15.04494304    19
STARLINK-5941           
1 56013C 23042AD  23177.43243056 -.00007163  00000-0 -52850-3 0  1773
2 56013  43.0023  20.1048 0001663 268.8721 207.9425 15.02542842    17
STARLINK-5942           
1 56014C 23042AE  23177.43659722 -.00004172  00000-0 -29229-3 0  1776
2 56014  43.0009   8.0062 0001694 268.3412 198.8831 15.04486355    16
STARLINK-5939           
1 56015C 23042AF  23177.43729167 -.00007425  00000-0 -52006-3 0  1771
2 56015  43.0006   8.0992 0001657 270.9189 159.5492 15.04495503    17
STARLINK-5943           
1 56016C 23042AG  23177.28451389 -.00983823  00000-0 -70660-1 0  1772
2 56016  43.0006   8.5690 0001293 266.4102 207.8916 15.04531346    13
STARLINK-5934           
1 56017C 23042AH  23177.43381944 -.00008640  00000-0 -60512-3 0  1771
2 56017  43.0006   7.9298 0001764 271.7190 218.3296 15.04497590    10
STARLINK-5945           
1 56018C 23042AJ  23177.43104167 -.00053354  00000-0 -37382-2 0  1772
2 56018  43.0007   7.8136 0001811 256.6025 273.6446 15.04529240    13
STARLINK-5949           
1 56019C 23042AK  23177.43451389  .00003119  00000-0  21846-3 0  1775
2 56019  43.0009   7.9763 0001785 272.0142 201.1199 15.04479620    12
STARLINK-5912           
1 56020C 23042AL  23177.43451389 -.00211238  00000-0 -14817-1 0  1770
2 56020  43.0008   7.8359 0001835 258.7790 273.1194 15.04643719    15
STARLINK-5907           
1 56021C 23042AM  23177.43034722  .00006717  00000-0  47053-3 0  1771
2 56021  43.0008   7.9080 0001725 271.4832 216.9780 15.04476643    11
STARLINK-5783           
1 56022C 23042AN  23177.43590278  .00005054  00000-0  37302-3 0  1774
2 56022  43.0004   7.5929 0001540 261.1168  16.7661 15.02521373    12
STARLINK-5771           
1 56023C 23042AP  23177.42895833 -.00327794  00000-0 -24116-1 0  1776
2 56023  43.0005   7.7336 0001210 278.3052 279.4036 15.02972953    12
STARLINK-5772           
1 56024C 23042AQ  23177.43451389 -.00000148  00000-0 -10893-4 0  1773
2 56024  43.0003   7.4989 0001371 261.5749  50.8350 15.02531578    11
STARLINK-5766           
1 56025C 23042AR  23177.43243056  .00007065  00000-0  52149-3 0  1776
2 56025  43.0004   7.6844 0001376 265.8102 323.2259 15.02516417    10
STARLINK-5770           
1 56026C 23042AS  23177.43173611 -.00002334  00000-0 -17223-3 0  1776
2 56026  43.0004   7.5865 0001542 259.2762   8.0391 15.02535726    16
STARLINK-5777           
1 56027C 23042AT  23177.42756944  .00004868  00000-0  35921-3 0  1779
2 56027  43.0004   7.6813 0001585 259.4649 315.2497 15.02524417    19
STARLINK-5779           
1 56028C 23042AU  23177.43104167 -.00002536  00000-0 -18715-3 0  1779
2 56028  43.0005   7.4448 0001558 261.3792  62.2838 15.02536834    18
STARLINK-5774           
1 56029C 23042AV  23177.43243056 -.00000297  00000-0 -21883-4 0  1774
2 56029  43.0004   7.5394 0001729 261.2126  27.8957 15.02533463    13
STARLINK-5781           
1 56030C 23042AW  23177.43451389  .00007437  00000-0  54882-3 0  1771
2 56030  43.0003   7.3968 0001582 267.5960  86.8879 15.02524778    18
STARLINK-5785           
1 56031C 23042AX  23177.43243056 -.00008117  00000-0 -59889-3 0  1772
2 56031  43.0005   7.4805 0001577 265.5183  47.6250 15.02543612    17
STARLINK-5786           
1 56032C 23042AY  23177.43520833 -.00002644  00000-0 -19510-3 0  1770
2 56032  43.0015   7.2947 0001747 261.8713 138.4533 15.02535852    11
STARLINK-5784           
1 56033C 23042AZ  23177.43381944 -.00003258  00000-0 -24040-3 0  1775
2 56033  43.0012   7.3304 0001821 263.3553 117.4160 15.02536963    16
STARLINK-5782           
1 56034C 23042BA  23177.43520833 -.00006663  00000-0 -49160-3 0  1771
2 56034  43.0018   7.2523 0001629 271.9737 146.3658 15.02543159    18
STARLINK-5792           
1 56035C 23042BB  23177.43451389 -.00009029  00000-0 -66622-3 0  1772
2 56035  43.0005   7.3554 0001763 270.5285 101.9797 15.02544996    13
STARLINK-5790           
1 56036C 23042BC  23177.43173611 -.00000573  00000-0 -42307-4 0  1772
2 56036  43.0019   7.2427 0001709 260.5519 151.0242 15.02532303    16
STARLINK-5758           
1 56037C 23042BD  23177.43590278 -.00971196  00000-0 -50838-1 0  1778
2 56037  43.0018 355.2497 0001386 263.4527  70.4250 15.16023514    18
STARLINK-5793           
1 56038C 23042BE  23177.43659722  .00006511  00000-0  48050-3 0  1772
2 56038  43.0017   7.2303 0001627 271.0048 160.8812 15.02524866    18
STARLINK-5795           
1 56039C 23042BF  23177.42826389 -.00970684  00000-0 -49957-1 0  1775
2 56039  43.0015 355.2048 0001416 262.1004  66.0080 15.16619972    10
STARLINK-5798           
1 56040C 23042BG  23177.43659722 -.00973051  00000-0 -48845-1 0  1779
2 56040  43.0009 355.0303 0001377 269.8510 157.1316 15.17496413    17
STARLINK-5800           
1 56041C 23042BH  23177.43034722 -.00972173  00000-0 -48512-1 0  1772
2 56041  43.0006 355.0350 0001399 272.8557 132.1233 15.17703136    10
STARLINK-6102           
1 56093C 23046A   23177.40743056  .00010837  00000-0  79973-3 0  1772
2 56093  43.0014 123.9274 0001266 271.1238 135.7091 15.02520713    17
STARLINK-6109           
1 56094C 23046B   23177.40395833  .00012672  00000-0  93495-3 0  1773
2 56094  43.0020 123.8287 0001525 263.7651 172.3572 15.02526368    15
STARLINK-6090           
1 56095C 23046C   23177.41090278  .00011157  00000-0  82333-3 0  1776
2 56095  43.0014 123.8793 0001423 266.8352 170.8235 15.02520130    10
STARLINK-6089           
1 56096C 23046D   23177.40604167  .00011516  00000-0  84984-3 0  1777
2 56096  43.0020 123.7885 0001416 272.0240 187.4044 15.02517895    12
STARLINK-6077           
1 56097C 23046E   23177.36923611 -.00011244  00000-0 -85430-4 0  1779
2 56097  43.0011  88.9772 0001782 259.2672  62.8365 15.71372575    14
STARLINK-6088           
1 56098C 23046F   23177.40812500  .00011252  00000-0  83032-3 0  1771
2 56098  43.0021 123.8493 0001600 271.5755 169.0737 15.02519279    14
STARLINK-6093           
1 56099C 23046G   23177.40673611  .00011724  00000-0  86537-3 0  1777
2 56099  43.0019 123.7125 0001671 263.6545 229.6083 15.02512149    16
STARLINK-6076           
1 56100C 23046H   23177.40465278  .00011237  00000-0  82924-3 0  1773
2 56100  43.0019 123.6837 0001246 260.6278 239.3664 15.02519354    14
STARLINK-6095           
1 56101C 23046J   23177.40951389  .00011455  00000-0  84538-3 0  1772
2 56101  43.0020 123.6249 0001655 272.1097 266.2329 15.02516699    11
STARLINK-6075           
1 56102C 23046K   23177.40812500  .00012151  00000-0  89652-3 0  1770
2 56102  43.0019 123.7340 0001634 262.9015 225.8415 15.02526002    13
STARLINK-6096           
1 56103C 23046L   23177.37409722 -.00108500  00000-0 -81735-2 0  1774
2 56103  43.0019 123.7489 0001295 260.1663 116.0261 15.01860819    16
STARLINK-6062           
1 56104C 23046M   23177.40673611  .00010744  00000-0  79302-3 0  1777
2 56104  43.0012 123.6264 0001346 259.6020 269.7239 15.02513989    12
STARLINK-6066           
1 56105C 23046N   23177.40881944  .00010519  00000-0  77637-3 0  1777
2 56105  43.0021 123.4254 0001522 265.6920 353.0598 15.02514696    13
STARLINK-6078           
1 56106C 23046P   23177.40743056  .00010210  00000-0  75354-3 0  1771
2 56106  43.0012 123.5211 0001346 261.5923 313.5664 15.02516300    19
STARLINK-6030           
1 56107C 23046Q   23177.43034722  .00009511  00000-0  70195-3 0  1778
2 56107  43.0016 123.2375 0001528 265.4183 139.9601 15.02516230    18
STARLINK-6081           
1 56108C 23046R   23177.40465278  .00011048  00000-0  81542-3 0  1776
2 56108  43.0013 123.5657 0001327 262.1314 285.9646 15.02515212    19
STARLINK-6083           
1 56109C 23046S   23177.40604167  .00011158  00000-0  82350-3 0  1779
2 56109  43.0012 123.4135 0001315 263.5225 352.2032 15.02514736    19
STARLINK-6082           
1 56110C 23046T   23177.40881944  .00011232  00000-0  82898-3 0  1771
2 56110  43.0019 123.4725 0001322 266.0327 334.6866 15.02513772    10
STARLINK-6084           
1 56111C 23046U   23177.40256944  .00011654  00000-0  86065-3 0  1776
2 56111  43.0009 123.2454 0001412 259.0347  55.9889 15.02490461    18
STARLINK-6080           
1 56112C 23046V   23177.40812500  .00010613  00000-0  78329-3 0  1771
2 56112  43.0016 123.2858 0001548 266.5083  48.5809 15.02514980    18
